[{"OBJECT_NAME":"STARLINK-1302","OBJECT_ID":"2020-019R","EPOCH":"2026-03-10T00:00:02.999808","MEAN_MOTION":15.5360347,"ECCENTRICITY":0.00030051,"INCLINATION":53.0527,"RA_OF_ASC_NODE":150.2604,"ARG_OF_PERICENTER":301.3248,"MEAN_ANOMALY":266.3306,"EPHEMERIS_TYPE":0,"CLASSIFICATION_TYPE":"U","NORAD_CAT_ID":45375,"ELEMENT_SET_NO":999,"REV_AT_EPOCH":575,"BSTAR":0.0013331917,"MEAN_MOTION_DOT":0.00086959,"MEAN_MOTION_DDOT":0},{"OBJECT_NAME":"FLOCK 4Q-34","OBJECT_ID":"2023-174BN","EPOCH":"2026-03-09T16:57:56.689632","MEAN_MOTION":15.55591297,"ECCENTRICITY":0.00066181,"INCLINATION":97.3851,"RA_OF_ASC_NODE":158.6249,"ARG_OF_PERICENTER":141.603,"MEAN_ANOMALY":218.5696,"EPHEMERIS_TYPE":0,"CLASSIFICATION_TYPE":"U","NORAD_CAT_ID":58316,"ELEMENT_SET_NO":999,"REV_AT_EPOCH":13044,"BSTAR":0.00072636739,"MEAN_MOTION_DOT":0.00049937,"MEAN_MOTION_DDOT":0}]
